SAOCOM 1A               
1 43641U 18076A   26113.31748304 -.00000322  00000+0 -33848-4 0  9991
2 43641  97.8902 300.8591 0001527  88.5405 271.5983 14.82149343407977
H-2A R/B                
1 43682U 18084L   26113.23970999  .00013767  00000+0  31059-3 0  9999
2 43682  98.8660 340.2028 0023273 225.9375 133.9952 15.43113765412646
SAOCOM 1B               
1 46265U 20059A   26113.28116620  .00000304  00000+0  44726-4 0  9991
2 46265  97.8894 299.9174 0001418  81.5269 278.6105 14.82188277305359
CSS (TIANHE)            
1 48274U 21035A   26112.96696656  .00024280  00000+0  26448-3 0  9993
2 48274  41.4675 298.3145 0006732 257.7382 102.2704 15.62812808284537
COSMOS 2550             
1 48865U 21056A   26113.31493068  .00002140  00000+0  70867-4 0  9990
2 48865  67.1426 265.8911 0008333 270.0046  90.0154 15.33823732270305
CZ-2C R/B               
1 52794U 22058K   26112.95464883  .00033550  00000+0  43607-3 0  9991
2 52794  50.1865  90.0078 0039336  30.3529 329.9709 15.57500164217029
CZ-2C R/B               
1 54039U 22132E   26112.52047686  .00031744  00000+0  31171-3 0  9995
2 54039  97.2944 117.3079 0012902 287.1644  72.8203 15.65889223197224
GSLV R/B                
1 54149U 22138AN  26113.10876506  .00001770  00000+0  15073-3 0  9998
2 54149  87.3820 151.4802 0021013 357.5134   2.5990 14.97013854190578
XRISM                   
1 57800U 23137A   26113.07605936  .00004028  00000+0  22345-3 0  9997
2 57800  31.0034 356.4570 0007496 127.5173 232.6148 15.11973396144511
ACS3                    
1 59588U 24077B   26112.74691476  .00004794  00000+0  37433-2 0  9996
2 59588  97.1850  43.9630 0066905 350.3018   9.6851 13.91470077100322
HTV-X1                  
1 66174U 25241A   26112.99220554  .00004413  00000+0  14900-3 0  9994
2 66174  51.6353 219.4042 0007821 344.1053  15.9682 15.32728944 27734
SZ-21 MODULE            
1 66515U 25246C   26112.76488071  .00029535  00000+0  22144-3 0  9994
2 66515  41.4735 291.3260 0004255 310.1381  49.9089 15.71947588 25006
